STARLINK-31947          
1 59835U 24097A   24227.20672256 -.00004569  00000+0 -10217-3 0  9998
2 59835  43.0051 291.6203 0001342 278.1959  81.8745 15.40704997 14104
STARLINK-31929          
1 59836U 24097B   24227.17538036 -.00003318  00000+0 -72269-4 0  9999
2 59836  43.0010 291.3779 0001863 296.2422  63.8243 15.40664917 14086
STARLINK-31927          
1 59837U 24097C   24227.19106327 -.00003528  00000+0 -77345-4 0  9999
2 59837  42.9996 291.4926 0001699 286.4041  73.6628 15.40655095 14081
STARLINK-31855          
1 59838U 24097D   24227.22453775 -.00005181  00000+0 -11698-3 0  9991
2 59838  43.0021 290.8837 0003230 314.0398  46.0192 15.40655934 14096
STARLINK-31887          
1 59839U 24097E   24227.19778657 -.00013363  00000+0 -31384-3 0  9992
2 59839  43.0023 291.5496 0003983 300.5568  59.4895 15.40627422 14080
STARLINK-31925          
1 59840U 24097F   24227.23345738  .00002826  00000+0  74899-4 0  9998
2 59840  43.0021 290.9502 0000896 305.3964  54.6809 15.40696326 14096
STARLINK-31852          
1 59841U 24097G   24227.21778884 -.00001516  00000+0 -29032-4 0  9995
2 59841  43.0064 290.8332 0002885 285.1945  74.8593 15.40672252 14094
STARLINK-31906          
1 59842U 24097H   24227.24913874  .00001954  00000+0  54028-4 0  9996
2 59842  43.0061 291.0714 0001653 308.5463  51.5246 15.40705340 14098
STARLINK-31857          
1 59843U 24097J   24227.21329941 -.00007105  00000+0 -16315-3 0  9992
2 59843  43.0018 290.7986 0001201 160.8765 199.2137 15.40670358 14090
STARLINK-31851          
1 59844U 24097K   24227.20223520 -.00001603  00000+0 -31138-4 0  9996
2 59844  43.0023 291.5803 0001890 284.1344  75.9303 15.40665669 14084
STARLINK-31903          
1 59845U 24097L   24227.22899034 -.00008730  00000+0 -20208-3 0  9991
2 59845  42.9999 290.9155 0001752 287.7171  72.3494 15.40682106 14113
STARLINK-31922          
1 59846U 24097M   24227.21072515 -.00010230  00000+0 -23802-3 0  9999
2 59846  43.0024 290.7753 0001621 281.4901  78.5773 15.40692330 14066
STARLINK-31889          
1 59847U 24097N   24227.24693061 -.00000934  00000+0 -15124-4 0  9997
2 59847  43.0017 291.0505 0001006 214.0124 146.0668 15.40657357 14091
STARLINK-31859          
1 59848U 24097P   24227.22003249 -.00008149  00000+0 -18809-3 0  9997
2 59848  43.0031 290.8481 0001087 276.8391  83.2342 15.40690821 14093
STARLINK-31895          
1 59849U 24097Q   24226.22754692  .00002213  00000+0  60220-4 0  9991
2 59849  43.0013 297.1660 0000363 239.0908 120.9913 15.40693548 13938
STARLINK-31899          
1 59850U 24097R   24227.45483206  .00002990  00000+0  78826-4 0  9992
2 59850  43.0051 290.0404 0001516 295.9203  64.1497 15.40698668 14126
STARLINK-31896          
1 59851U 24097S   24227.19327710  .00000073  00000+0  90180-5 0  9999
2 59851  43.0069 291.5092 0001685 276.6963  83.3702 15.40692606 14084
STARLINK-31897          
1 59852U 24097T   24227.25362500  .00002851  00000+0  75540-4 0  9991
2 59852  43.0026 291.0998 0001419 253.2871 106.7830 15.40679741 14090
STARLINK-31892          
1 59853U 24097U   24227.17983229 -.00000114  00000+0  45466-5 0  9996
2 59853  43.0048 291.4051 0001351 276.8766  83.1936 15.40693257 14057
STARLINK-31891          
1 59854U 24097V   24227.24242661  .00001378  00000+0  40258-4 0  9998
2 59854  43.0022 291.0125 0001293 259.4085 100.6626 15.40684000 14095
STARLINK-31882          
1 59855U 24097W   24227.17312104  .00000620  00000+0  22129-4 0  9997
2 59855  43.0017 291.3551 0002299 284.9399  75.1203 15.40685122 14109
STARLINK-31691          
1 59856U 24097X   24227.47485047  .00004946  00000+0  12561-3 0  9991
2 59856  43.0000 289.3149 0001166 266.3036  93.7687 15.40693211 14139
STARLINK-31569          
1 59857U 24097Y   24227.44585795  .00005311  00000+0  13428-3 0  9990
2 59857  43.0025 289.9627 0001754 272.3642  87.7013 15.40710185 14122
STARLINK-31654          
1 59858U 24098A   24227.28003133 -.00004745  00000+0 -10650-3 0  9991
2 59858  43.0008 300.0825 0002886 312.0484  48.0127 15.40659645 13951
STARLINK-31442          
1 59859U 24098B   24227.50782152  .00009266  00000+0  22880-3 0  9991
2 59859  43.0029 297.4590 0001748 285.1860  74.8803 15.40701641 14017
STARLINK-31651          
1 59860U 24098C   24227.26433157 -.00002714  00000+0 -57756-4 0  9998
2 59860  43.0017 299.9598 0001260 268.2010  91.8702 15.40686993 13961
STARLINK-31703          
1 59861U 24098D   24227.33335648  .00521396  00000+0  96607-2 0  9999
2 59861  43.0012 297.7054 0003065  22.2763  52.5980 15.46278835  5970
STARLINK-31584          
1 59862U 24098E   24227.27326546  .00000850  00000+0  27608-4 0  9994
2 59862  43.0020 300.0274 0000961 223.2780 136.8002 15.40709841 13156
