OBJECT_NAME,OBJECT_ID,EPOCH,MEAN_MOTION,ECCENTRICITY,INCLINATION,RA_OF_ASC_NODE,ARG_OF_PERICENTER,MEAN_ANOMALY,EPHEMERIS_TYPE,CLASSIFICATION_TYPE,NORAD_CAT_ID,ELEMENT_SET_NO,REV_AT_EPOCH,BSTAR,MEAN_MOTION_DOT,MEAN_MOTION_DDOT
STARLINK-31947,2024-097A,2024-08-14T04:57:40.829184,15.40704997,.0001342,43.0051,291.6203,278.1959,81.8745,0,U,59835,999,1410,-.10217E-3,-.4569E-4,0
STARLINK-31929,2024-097B,2024-08-14T04:12:32.863104,15.40664917,.0001863,43.0010,291.3779,296.2422,63.8243,0,U,59836,999,1408,-.72269E-4,-.3318E-4,0
STARLINK-31927,2024-097C,2024-08-14T04:35:07.866528,15.40655095,.0001699,42.9996,291.4926,286.4041,73.6628,0,U,59837,999,1408,-.77345E-4,-.3528E-4,0
STARLINK-31855,2024-097D,2024-08-14T05:23:20.061600,15.40655934,.000323,43.0021,290.8837,314.0398,46.0192,0,U,59838,999,1409,-.11698E-3,-.5181E-4,0
STARLINK-31887,2024-097E,2024-08-14T04:44:48.759648,15.40627422,.0003983,43.0023,291.5496,300.5568,59.4895,0,U,59839,999,1408,-.31384E-3,-.13363E-3,0
STARLINK-31925,2024-097F,2024-08-14T05:36:10.717632,15.40696326,.0000896,43.0021,290.9502,305.3964,54.6809,0,U,59840,999,1409,.74899E-4,.2826E-4,0
STARLINK-31852,2024-097G,2024-08-14T05:13:36.955776,15.40672252,.0002885,43.0064,290.8332,285.1945,74.8593,0,U,59841,999,1409,-.29032E-4,-.1516E-4,0
STARLINK-31906,2024-097H,2024-08-14T05:58:45.587136,15.40705340,.0001653,43.0061,291.0714,308.5463,51.5246,0,U,59842,999,1409,.54028E-4,.1954E-4,0
STARLINK-31857,2024-097J,2024-08-14T05:07:09.069024,15.40670358,.0001201,43.0018,290.7986,160.8765,199.2137,0,U,59843,999,1409,-.16315E-3,-.7105E-4,0
STARLINK-31851,2024-097K,2024-08-14T04:51:13.121280,15.40665669,.000189,43.0023,291.5803,284.1344,75.9303,0,U,59844,999,1408,-.31138E-4,-.1603E-4,0
STARLINK-31903,2024-097L,2024-08-14T05:29:44.765376,15.40682106,.0001752,42.9999,290.9155,287.7171,72.3494,0,U,59845,999,1411,-.20208E-3,-.873E-4,0
STARLINK-31922,2024-097M,2024-08-14T05:03:26.652960,15.40692330,.0001621,43.0024,290.7753,281.4901,78.5773,0,U,59846,999,1406,-.23802E-3,-.1023E-3,0
STARLINK-31889,2024-097N,2024-08-14T05:55:34.804704,15.40657357,.0001006,43.0017,291.0505,214.0124,146.0668,0,U,59847,999,1409,-.15124E-4,-.934E-5,0
STARLINK-31859,2024-097P,2024-08-14T05:16:50.807136,15.40690821,.0001087,43.0031,290.8481,276.8391,83.2342,0,U,59848,999,1409,-.18809E-3,-.8149E-4,0
STARLINK-31895,2024-097Q,2024-08-13T05:27:40.053888,15.40693548,.0000363,43.0013,297.1660,239.0908,120.9913,0,U,59849,999,1393,.6022E-4,.2213E-4,0
STARLINK-31899,2024-097R,2024-08-14T10:54:57.489984,15.40698668,.0001516,43.0051,290.0404,295.9203,64.1497,0,U,59850,999,1412,.78826E-4,.299E-4,0
STARLINK-31896,2024-097S,2024-08-14T04:38:19.141440,15.40692606,.0001685,43.0069,291.5092,276.6963,83.3702,0,U,59851,999,1408,.9018E-5,.73E-6,0
STARLINK-31897,2024-097T,2024-08-14T06:05:13.200000,15.40679741,.0001419,43.0026,291.0998,253.2871,106.7830,0,U,59852,999,1409,.7554E-4,.2851E-4,0
STARLINK-31892,2024-097U,2024-08-14T04:18:57.509856,15.40693257,.0001351,43.0048,291.4051,276.8766,83.1936,0,U,59853,999,1405,.45466E-5,-.114E-5,0
STARLINK-31891,2024-097V,2024-08-14T05:49:05.659104,15.40684000,.0001293,43.0022,291.0125,259.4085,100.6626,0,U,59854,999,1409,.40258E-4,.1378E-4,0
STARLINK-31882,2024-097W,2024-08-14T04:09:17.657856,15.40685122,.0002299,43.0017,291.3551,284.9399,75.1203,0,U,59855,999,1410,.22129E-4,.62E-5,0
STARLINK-31691,2024-097X,2024-08-14T11:23:47.080608,15.40693211,.0001166,43.0000,289.3149,266.3036,93.7687,0,U,59856,999,1413,.12561E-3,.4946E-4,0
STARLINK-31569,2024-097Y,2024-08-14T10:42:02.126880,15.40710185,.0001754,43.0025,289.9627,272.3642,87.7013,0,U,59857,999,1412,.13428E-3,.5311E-4,0
STARLINK-31654,2024-098A,2024-08-14T06:43:14.706912,15.40659645,.0002886,43.0008,300.0825,312.0484,48.0127,0,U,59858,999,1395,-.1065E-3,-.4745E-4,0
STARLINK-31442,2024-098B,2024-08-14T12:11:15.779328,15.40701641,.0001748,43.0029,297.4590,285.1860,74.8803,0,U,59859,999,1401,.2288E-3,.9266E-4,0
STARLINK-31651,2024-098C,2024-08-14T06:20:38.247648,15.40686993,.000126,43.0017,299.9598,268.2010,91.8702,0,U,59860,999,1396,-.57756E-4,-.2714E-4,0
STARLINK-31703,2024-098D,2024-08-14T08:00:01.999872,15.46278835,.0003065,43.0012,297.7054,22.2763,52.5980,0,U,59861,999,597,.96607E-2,.521396E-2,0
STARLINK-31584,2024-098E,2024-08-14T06:33:30.135744,15.40709841,.0000961,43.0020,300.0274,223.2780,136.8002,0,U,59862,999,1315,.27608E-4,.85E-5,0
